API VERSION: 1.2
API SOURCE: NASA/JPL Horizons API



*******************************************************************************
Ephemeris / API_USER Sat Jul 11 19:36:43 2026 Pasadena, USA      / Horizons    
*******************************************************************************
Target body name: 2060 Chiron (1977 UB)           {source: JPL#171}
Center body name: Earth (399)                     {source: DE441}
Center-site name: GEOCENTRIC
*******************************************************************************
Start time      : A.D. 1955-Jan-01 00:00:00.0000 UT      
Stop  time      : A.D. 1960-Jan-01 00:00:00.0000 UT      
Step-size       : 2880 minutes
*******************************************************************************
Target pole/equ : undefined
Target radii    : 83. km                                                       
Center geodetic : 0.0, 0.0, -6378.137             {E-lon(deg),Lat(deg),Alt(km)}
Center cylindric: 0.0, 0.0, 0.0                   {E-lon(deg),Dxy(km),Dz(km)}
Center pole/equ : ITRF93                          {East-longitude positive}
Center radii    : 6378.137, 6378.137, 6356.752 km {Equator_a, b, pole_c}       
Target primary  : Sun
Vis. interferer : MOON (R_eq= 1737.400) km        {source: DE441}
Rel. light bend : Sun                             {source: DE441}
Rel. lght bnd GM: 1.3271E+11 km^3/s^2                                          
Small-body perts: Yes                             {source: SB441-N16}
Atmos refraction: NO (AIRLESS)
RA format       : DEG
Time format     : CAL 
Calendar mode   : Mixed Julian/Gregorian
EOP file        : eop.260710.p261006                                           
EOP coverage    : DATA-BASED 1962-JAN-20 TO 2026-JUL-10. PREDICTS-> 2026-OCT-05
Units conversion: 1 au= 149597870.700 km, c= 299792.458 km/s, 1 day= 86400.0 s 
Table cut-offs 1: Elevation (-90.0deg=NO ),Airmass (>38.000=NO), Daylight (NO )
Table cut-offs 2: Solar elongation (  0.0,180.0=NO ),Local Hour Angle( 0.0=NO )
Table cut-offs 3: RA/DEC angular rate (     0.0=NO )                           
*******************************************************************************
Initial IAU76/J2000 heliocentric ecliptic osculating elements (au, days, deg.):
  EPOCH=  2457916.5 ! 2017-Jun-12.00 (TDB)         Residual RMS= .19933        
   EC= .3824171374703196   QR= 8.427522999110739   TP= 2450143.7110841358      
   OM= 209.2011323125998   W=  339.6529896907077   IN= 6.94959060447848        
  Equivalent ICRF heliocentric cartesian coordinates (au, au/d):
   X= 1.843374627977423E+01  Y=-1.877818593473934E+00  Z= 5.548833989583914E-01
  VX= 7.316266023833624E-04 VY= 2.960187278972600E-03 VZ= 9.710586201315230E-04
Asteroid physical parameters (km, seconds, rotational period in hours):        
   GM= n.a.                RAD= 83.                ROTPER= 5.918               
   H= 5.54                 G= .150                 B-V= .704                   
                           ALBEDO= .150            STYP= Cb                    
*******************************************************************************
 Date__(UT)__HR:MN        ObsEcLon    ObsEcLat
**********************************************
$$SOE
 1955-Jan-01 00:00     297.7008936   6.4865496
 1955-Jan-03 00:00     297.8697697   6.4821414
 1955-Jan-05 00:00     298.0397244   6.4782093
 1955-Jan-07 00:00     298.2106307   6.4747544
 1955-Jan-09 00:00     298.3823048   6.4717783
 1955-Jan-11 00:00     298.5545697   6.4692834
 1955-Jan-13 00:00     298.7273106   6.4672721
 1955-Jan-15 00:00     298.9004472   6.4657465
 1955-Jan-17 00:00     299.0738879   6.4647078
 1955-Jan-19 00:00     299.2475151   6.4641556
 1955-Jan-21 00:00     299.4211859   6.4640884
 1955-Jan-23 00:00     299.5947371   6.4645054
 1955-Jan-25 00:00     299.7679945   6.4654072
 1955-Jan-27 00:00     299.9407997   6.4667931
 1955-Jan-29 00:00     300.1130347   6.4686610
 1955-Jan-31 00:00     300.2846133   6.4710080
 1955-Feb-02 00:00     300.4554375   6.4738308
 1955-Feb-04 00:00     300.6253606   6.4771266
 1955-Feb-06 00:00     300.7942021   6.4808931
 1955-Feb-08 00:00     300.9618078   6.4851282
 1955-Feb-10 00:00     301.1280805   6.4898302
 1955-Feb-12 00:00     301.2929476   6.4949970
 1955-Feb-14 00:00     301.4563196   6.5006259
 1955-Feb-16 00:00     301.6180778   6.5067135
 1955-Feb-18 00:00     301.7780795   6.5132560
 1955-Feb-20 00:00     301.9361654   6.5202486
 1955-Feb-22 00:00     302.0921730   6.5276861
 1955-Feb-24 00:00     302.2459653   6.5355623
 1955-Feb-26 00:00     302.3974523   6.5438704
 1955-Feb-28 00:00     302.5465646   6.5526033
 1955-Mar-02 00:00     302.6931990   6.5617538
 1955-Mar-04 00:00     302.8372048   6.5713152
 1955-Mar-06 00:00     302.9784251   6.5812810
 1955-Mar-08 00:00     303.1167445   6.5916448
 1955-Mar-10 00:00     303.2520943   6.6024003
 1955-Mar-12 00:00     303.3844181   6.6135406
 1955-Mar-14 00:00     303.5136379   6.6250583
 1955-Mar-16 00:00     303.6396470   6.6369453
 1955-Mar-18 00:00     303.7623181   6.6491925
 1955-Mar-20 00:00     303.8815143   6.6617904
 1955-Mar-22 00:00     303.9971037   6.6747284
 1955-Mar-24 00:00     304.1089864   6.6879952
 1955-Mar-26 00:00     304.2171111   6.7015788
 1955-Mar-28 00:00     304.3214337   6.7154666
 1955-Mar-30 00:00     304.4218585   6.7296462
 1955-Apr-01 00:00     304.5182525   6.7441054
 1955-Apr-03 00:00     304.6105052   6.7588324
 1955-Apr-05 00:00     304.6985570   6.7738150
 1955-Apr-07 00:00     304.7823820   6.7890410
 1955-Apr-09 00:00     304.8619539   6.8044976
 1955-Apr-11 00:00     304.9372232   6.8201713
 1955-Apr-13 00:00     305.0081140   6.8360475
 1955-Apr-15 00:00     305.0745356   6.8521113
 1955-Apr-17 00:00     305.1363954   6.8683467
 1955-Apr-19 00:00     305.1936156   6.8847367
 1955-Apr-21 00:00     305.2461559   6.9012637
 1955-Apr-23 00:00     305.2940209   6.9179092
 1955-Apr-25 00:00     305.3372087   6.9346543
 1955-Apr-27 00:00     305.3756553   6.9514804
 1955-Apr-29 00:00     305.4092762   6.9683691
 1955-May-01 00:00     305.4380362   6.9853023
 1955-May-03 00:00     305.4619529   7.0022619
 1955-May-05 00:00     305.4810639   7.0192293
 1955-May-07 00:00     305.4953964   7.0361855
 1955-May-09 00:00     305.5049541   7.0531107
 1955-May-11 00:00     305.5097194   7.0699845
 1955-May-13 00:00     305.5096660   7.0867859
 1955-May-15 00:00     305.5047750   7.1034931
 1955-May-17 00:00     305.4950521   7.1200838
 1955-May-19 00:00     305.4805439   7.1365350
 1955-May-21 00:00     305.4613327   7.1528232
 1955-May-23 00:00     305.4374818   7.1689249
 1955-May-25 00:00     305.4089911   7.1848173
 1955-May-27 00:00     305.3758597   7.2004781
 1955-May-29 00:00     305.3381553   7.2158861
 1955-May-31 00:00     305.2959946   7.2310198
 1955-Jun-02 00:00     305.2494994   7.2458581
 1955-Jun-04 00:00     305.1987737   7.2603795
 1955-Jun-06 00:00     305.1438987   7.2745623
 1955-Jun-08 00:00     305.0849388   7.2883849
 1955-Jun-10 00:00     305.0219564   7.3018253
 1955-Jun-12 00:00     304.9550290   7.3148615
 1955-Jun-14 00:00     304.8842663   7.3274714
 1955-Jun-16 00:00     304.8098174   7.3396330
 1955-Jun-18 00:00     304.7318531   7.3513247
 1955-Jun-20 00:00     304.6505119   7.3625257
 1955-Jun-22 00:00     304.5658768   7.3732163
 1955-Jun-24 00:00     304.4780472   7.3833789
 1955-Jun-26 00:00     304.3871993   7.3929967
 1955-Jun-28 00:00     304.2935470   7.4020542
 1955-Jun-30 00:00     304.1972939   7.4105364
 1955-Jul-02 00:00     304.0986188   7.4184287
 1955-Jul-04 00:00     303.9976766   7.4257173
 1955-Jul-06 00:00     303.8946083   7.4323887
 1955-Jul-08 00:00     303.7895561   7.4384302
 1955-Jul-10 00:00     303.6826822   7.4438296
 1955-Jul-12 00:00     303.5741833   7.4485754
 1955-Jul-14 00:00     303.4642873   7.4526572
 1955-Jul-16 00:00     303.3532225   7.4560655
 1955-Jul-18 00:00     303.2411734   7.4587927
 1955-Jul-20 00:00     303.1282814   7.4608330
 1955-Jul-22 00:00     303.0147177   7.4621830
 1955-Jul-24 00:00     302.9007233   7.4628410
 1955-Jul-26 00:00     302.7865607   7.4628068
 1955-Jul-28 00:00     302.6724658   7.4620810
 1955-Jul-30 00:00     302.5586420   7.4606652
 1955-Aug-01 00:00     302.4452669   7.4585617
 1955-Aug-03 00:00     302.3325043   7.4557739
 1955-Aug-05 00:00     302.2205191   7.4523059
 1955-Aug-07 00:00     302.1094988   7.4481625
 1955-Aug-09 00:00     301.9996625   7.4433495
 1955-Aug-11 00:00     301.8912449   7.4378740
 1955-Aug-13 00:00     301.7844575   7.4317443
 1955-Aug-15 00:00     301.6794606   7.4249703
 1955-Aug-17 00:00     301.5763890   7.4175642
 1955-Aug-19 00:00     301.4754153   7.4095398
 1955-Aug-21 00:00     301.3767657   7.4009126
 1955-Aug-23 00:00     301.2806691   7.3916987
 1955-Aug-25 00:00     301.1873153   7.3819150
 1955-Aug-27 00:00     301.0968562   7.3715786
 1955-Aug-29 00:00     301.0094183   7.3607073
 1955-Aug-31 00:00     300.9251144   7.3493190
 1955-Sep-02 00:00     300.8440604   7.3374319
 1955-Sep-04 00:00     300.7663953   7.3250647
 1955-Sep-06 00:00     300.6922869   7.3122360
 1955-Sep-08 00:00     300.6218999   7.2989654
 1955-Sep-10 00:00     300.5553549   7.2852733
 1955-Sep-12 00:00     300.4927249   7.2711811
 1955-Sep-14 00:00     300.4340801   7.2567115
 1955-Sep-16 00:00     300.3795332   7.2418879
 1955-Sep-18 00:00     300.3292314   7.2267344
 1955-Sep-20 00:00     300.2833084   7.2112748
 1955-Sep-22 00:00     300.2418542   7.1955328
 1955-Sep-24 00:00     300.2049210   7.1795320
 1955-Sep-26 00:00     300.1725399   7.1632951
 1955-Sep-28 00:00     300.1447332   7.1468448
 1955-Sep-30 00:00     300.1215307   7.1302032
 1955-Oct-02 00:00     300.1029881   7.1133920
 1955-Oct-04 00:00     300.0891860   7.0964327
 1955-Oct-06 00:00     300.0801859   7.0793467
 1955-Oct-08 00:00     300.0759908   7.0621556
 1955-Oct-10 00:00     300.0765710   7.0448819
 1955-Oct-12 00:00     300.0819200   7.0275482
 1955-Oct-14 00:00     300.0920750   7.0101769
